SKYSAT-C13              
1 43802U 18099AW  26068.66503718  .00089861  00000+0  55860-3 0  9990
2 43802  96.9402 116.3001 0003986 199.1701 160.9417 15.76710150407164
STARLINK-11391 [DTC]    
1 62889U 25024L   26068.59637049  .00259175  00000+0  19589-2 0  9993
2 62889  42.9984 181.8576 0002739 314.5585  45.5059 15.70863794 63455
