[{"OBJECT_NAME":"SKYSAT-C13","OBJECT_ID":"2018-099AW","EPOCH":"2026-03-09T15:57:39.212352","MEAN_MOTION":15.7671015,"ECCENTRICITY":0.00039856,"INCLINATION":96.9402,"RA_OF_ASC_NODE":116.3001,"ARG_OF_PERICENTER":199.1701,"MEAN_ANOMALY":160.9417,"EPHEMERIS_TYPE":0,"CLASSIFICATION_TYPE":"U","NORAD_CAT_ID":43802,"ELEMENT_SET_NO":999,"REV_AT_EPOCH":40716,"BSTAR":0.00055859913,"MEAN_MOTION_DOT":0.00089861,"MEAN_MOTION_DDOT":0},{"OBJECT_NAME":"STARLINK-11391 [DTC]","OBJECT_ID":"2025-024L","EPOCH":"2026-03-09T14:18:46.410336","MEAN_MOTION":15.70863794,"ECCENTRICITY":0.0002739,"INCLINATION":42.9984,"RA_OF_ASC_NODE":181.8576,"ARG_OF_PERICENTER":314.5585,"MEAN_ANOMALY":45.5059,"EPHEMERIS_TYPE":0,"CLASSIFICATION_TYPE":"U","NORAD_CAT_ID":62889,"ELEMENT_SET_NO":999,"REV_AT_EPOCH":6345,"BSTAR":0.0019589,"MEAN_MOTION_DOT":0.00259175,"MEAN_MOTION_DDOT":0}]
